{"fetched_at":"2026-07-12T05:53:13.987Z","source":"https://celestrak.org/NORAD/elements/gp.php?NAME=SENTINEL&FORMAT=JSON","constellation":"sentinel-1","records":[{"OBJECT_NAME":"SENTINEL-1A","OBJECT_ID":"2014-016A","EPOCH":"2026-07-11T20:20:21.923808","CLASSIFICATION_TYPE":"U","MEAN_MOTION":14.59199576,"ECCENTRICITY":0.0001454,"INCLINATION":98.1786,"RA_OF_ASC_NODE":200.02,"ARG_OF_PERICENTER":86.455,"MEAN_ANOMALY":273.6816,"EPHEMERIS_TYPE":0,"NORAD_CAT_ID":39634,"ELEMENT_SET_NO":999,"REV_AT_EPOCH":65361,"BSTAR":-0.000009009,"MEAN_MOTION_DOT":-8.8e-7,"MEAN_MOTION_DDOT":0},{"OBJECT_NAME":"SENTINEL-1B","OBJECT_ID":"2016-025A","EPOCH":"2026-07-11T19:41:51.421056","CLASSIFICATION_TYPE":"U","MEAN_MOTION":14.99279041,"ECCENTRICITY":0.0015887,"INCLINATION":98.0913,"RA_OF_ASC_NODE":254.529,"ARG_OF_PERICENTER":47.722,"MEAN_ANOMALY":312.5346,"EPHEMERIS_TYPE":0,"NORAD_CAT_ID":41456,"ELEMENT_SET_NO":999,"REV_AT_EPOCH":54747,"BSTAR":0.000032534,"MEAN_MOTION_DOT":0.00000333,"MEAN_MOTION_DDOT":0},{"OBJECT_NAME":"SENTINEL-1C","OBJECT_ID":"2024-235A","EPOCH":"2026-07-11T21:17:06.069120","CLASSIFICATION_TYPE":"U","MEAN_MOTION":14.59197516,"ECCENTRICITY":0.0001305,"INCLINATION":98.1824,"RA_OF_ASC_NODE":199.844,"ARG_OF_PERICENTER":89.2746,"MEAN_ANOMALY":270.8603,"EPHEMERIS_TYPE":0,"NORAD_CAT_ID":62261,"ELEMENT_SET_NO":999,"REV_AT_EPOCH":8501,"BSTAR":-0.0000011647,"MEAN_MOTION_DOT":-5.1e-7,"MEAN_MOTION_DDOT":0},{"OBJECT_NAME":"SENTINEL-1D","OBJECT_ID":"2025-251A","EPOCH":"2026-07-11T10:35:29.445792","CLASSIFICATION_TYPE":"U","MEAN_MOTION":14.59198074,"ECCENTRICITY":0.00013983,"INCLINATION":98.1832,"RA_OF_ASC_NODE":199.4596,"ARG_OF_PERICENTER":91.6632,"MEAN_ANOMALY":268.4727,"EPHEMERIS_TYPE":0,"NORAD_CAT_ID":66315,"ELEMENT_SET_NO":999,"REV_AT_EPOCH":3626,"BSTAR":0.000005276457,"MEAN_MOTION_DOT":-2.1e-7,"MEAN_MOTION_DDOT":0}]}
